start=new Date('2022-05-21T00:00:00.000Z').valueOf();
sats=[{"ELEMENT_SET_NO":"999","REF_FRAME":"TEME","INCLINATION":"53.0553","FILE":"3455309","CENTER_NAME":"EARTH","ARG_OF_PERICENTER":"54.9901","DECAY_DATE":null,"SITE":"AFETR","PERIOD":"95.592","BSTAR":"-0.00001326200000","MEAN_MOTION_DOT":"-0.00000479","PERIAPSIS":"546.058","MEAN_ANOMALY":"305.1246","EPOCH":"2022-05-20T12:00:19.670688","MEAN_MOTION":"15.06395349","RCS_SIZE":"LARGE","RA_OF_ASC_NODE":"62.9236","CLASSIFICATION_TYPE":"U","LAUNCH_DATE":"2020-08-18","EPHEMERIS_TYPE":"0","ECCENTRICITY":"0.00016890","TIME_SYSTEM":"UTC","MEAN_MOTION_DDOT":"0.0000000000000","TLE_LINE1":"1 46136U 20057V   22140.50022767 -.00000479  00000-0 -13262-4 0  9992","TLE_LINE2":"2 46136  53.0553  62.9236 0001689  54.9901 305.1246 15.06395349 97487","OBJECT_NAME":"STARLINK-1643","APOAPSIS":"548.398","MEAN_ELEMENT_THEORY":"SGP4","SEMIMAJOR_AXIS":"6925.363","REV_AT_EPOCH":"9748","GP_ID":"204045434","OBJECT_ID":"2020-057V","NORAD_CAT_ID":"46136","OBJECT_TYPE":"PAYLOAD","COUNTRY_CODE":"US"},{"APOAPSIS":"548.629","MEAN_ELEMENT_THEORY":"SGP4","REV_AT_EPOCH":"9761","SEMIMAJOR_AXIS":"6925.357","OBJECT_ID":"2020-057W","GP_ID":"204012762","NORAD_CAT_ID":"46137","OBJECT_TYPE":"PAYLOAD","COUNTRY_CODE":"US","TLE_LINE1":"1 46137U 20057W   22140.45322769  .00001135  00000-0  95101-4 0  9992","TLE_LINE2":"2 46137  53.0579  53.1523 0002032  45.4819 314.6336 15.06397242 97617","OBJECT_NAME":"STARLINK-1586","ECCENTRICITY":"0.00020320","TIME_SYSTEM":"UTC","MEAN_MOTION_DDOT":"0.0000000000000","RCS_SIZE":"LARGE","RA_OF_ASC_NODE":"53.1523","LAUNCH_DATE":"2020-08-18","CLASSIFICATION_TYPE":"U","EPHEMERIS_TYPE":"0","EPOCH":"2022-05-20T10:52:38.872416","MEAN_MOTION":"15.06397242","BSTAR":"0.00009510100000","MEAN_MOTION_DOT":"0.00001135","PERIAPSIS":"545.815","MEAN_ANOMALY":"314.6336","DECAY_DATE":null,"SITE":"AFETR","PERIOD":"95.592","ELEMENT_SET_NO":"999","INCLINATION":"53.0579","REF_FRAME":"TEME","FILE":"3454781","ARG_OF_PERICENTER":"45.4819","CENTER_NAME":"EARTH"},{"BSTAR":"0.00032553000000","MEAN_ANOMALY":"305.7387","MEAN_MOTION_DOT":"0.00004571","PERIAPSIS":"545.917","EPOCH":"2022-05-20T12:25:31.767456","MEAN_MOTION":"15.06406930","ELEMENT_SET_NO":"999","CENTER_NAME":"EARTH","ARG_OF_PERICENTER":"54.3773","INCLINATION":"53.0556","REF_FRAME":"TEME","FILE":"3455160","SITE":"AFETR","PERIOD":"95.592","DECAY_DATE":null,"TLE_LINE1":"1 46138U 20057X   22140.51772879  .00004571  00000-0  32553-3 0  9999","TLE_LINE2":"2 46138  53.0556  72.8536 0001842  54.3773 305.7387 15.06406930 96689","OBJECT_NAME":"STARLINK-1590","APOAPSIS":"548.468","MEAN_ELEMENT_THEORY":"SGP4","GP_ID":"204038574","NORAD_CAT_ID":"46138","OBJECT_ID":"2020-057X","COUNTRY_CODE":"US","OBJECT_TYPE":"PAYLOAD","REV_AT_EPOCH":"9668","SEMIMAJOR_AXIS":"6925.327","RCS_SIZE":"LARGE","EPHEMERIS_TYPE":"0","RA_OF_ASC_NODE":"72.8536","LAUNCH_DATE":"2020-08-18","CLASSIFICATION_TYPE":"U","ECCENTRICITY":"0.00018420","MEAN_MOTION_DDOT":"0.0000000000000","TIME_SYSTEM":"UTC"},{"ECCENTRICITY":"0.00018630","TIME_SYSTEM":"UTC","MEAN_MOTION_DDOT":"0.0000000000000","RCS_SIZE":"LARGE","RA_OF_ASC_NODE":"33.3246","LAUNCH_DATE":"2020-08-18","CLASSIFICATION_TYPE":"U","EPHEMERIS_TYPE":"0","APOAPSIS":"548.508","MEAN_ELEMENT_THEORY":"SGP4","SEMIMAJOR_AXIS":"6925.353","REV_AT_EPOCH":"9849","GP_ID":"204039326","OBJECT_ID":"2020-057Z","NORAD_CAT_ID":"46140","OBJECT_TYPE":"PAYLOAD","COUNTRY_CODE":"US","TLE_LINE1":"1 46140U 20057Z   22140.41084085  .00002643  00000-0  19625-3 0  9999","TLE_LINE2":"2 46140  53.0551  33.3246 0001863  48.1080 312.0068 15.06398475 98494","OBJECT_NAME":"STARLINK-1594","DECAY_DATE":null,"SITE":"AFETR","PERIOD":"95.592","ELEMENT_SET_NO":"999","INCLINATION":"53.0551","REF_FRAME":"TEME","FILE":"3455160","CENTER_NAME":"EARTH","ARG_OF_PERICENTER":"48.1080","EPOCH":"2022-05-20T09:51:36.649440","MEAN_MOTION":"15.06398475","BSTAR":"0.00019625000000","MEAN_MOTION_DOT":"0.00002643","PERIAPSIS":"545.928","MEAN_ANOMALY":"312.0068"},{"CENTER_NAME":"EARTH","ARG_OF_PERICENTER":"65.0279","REF_FRAME":"TEME","INCLINATION":"53.0565","FILE":"3455160","ELEMENT_SET_NO":"999","SITE":"AFETR","PERIOD":"95.593","DECAY_DATE":null,"MEAN_ANOMALY":"295.0875","MEAN_MOTION_DOT":"-0.00000095","PERIAPSIS":"546.138","BSTAR":"0.00001252400000","MEAN_MOTION":"15.06389902","EPOCH":"2022-05-20T02:57:36.879264","EPHEMERIS_TYPE":"0","RA_OF_ASC_NODE":"34.6143","CLASSIFICATION_TYPE":"U","LAUNCH_DATE":"2020-08-18","RCS_SIZE":"LARGE","TIME_SYSTEM":"UTC","MEAN_MOTION_DDOT":"0.0000000000000","ECCENTRICITY":"0.00015980","OBJECT_NAME":"STARLINK-1596","TLE_LINE1":"1 46141U 20057AA  22140.12334351 -.00000095  00000-0  12524-4 0  9994","TLE_LINE2":"2 46141  53.0565  34.6143 0001598  65.0279 295.0875 15.06389902 97189","GP_ID":"204039053","OBJECT_ID":"2020-057AA","NORAD_CAT_ID":"46141","OBJECT_TYPE":"PAYLOAD","COUNTRY_CODE":"US","SEMIMAJOR_AXIS":"6925.380","REV_AT_EPOCH":"9718","APOAPSIS":"548.351","MEAN_ELEMENT_THEORY":"SGP4"},{"EPHEMERIS_TYPE":"0","LAUNCH_DATE":"2020-08-18","CLASSIFICATION_TYPE":"U","RA_OF_ASC_NODE":"72.7565","RCS_SIZE":"LARGE","TIME_SYSTEM":"UTC","MEAN_MOTION_DDOT":"0.0000000000000","ECCENTRICITY":"0.00019130","OBJECT_NAME":"STARLINK-1597","TLE_LINE2":"2 46142  53.0546  72.7565 0001913  53.3903 306.7262 15.06398883 96687","TLE_LINE1":"1 46142U 20057AB  22140.53984639  .00003728  00000-0  26905-3 0  9992","OBJECT_TYPE":"PAYLOAD","COUNTRY_CODE":"US","OBJECT_ID":"2020-057AB","GP_ID":"204037825","NORAD_CAT_ID":"46142","SEMIMAJOR_AXIS":"6925.352","REV_AT_EPOCH":"9668","MEAN_ELEMENT_THEORY":"SGP4","APOAPSIS":"548.542","CENTER_NAME":"EARTH","ARG_OF_PERICENTER":"53.3903","FILE":"3455160","REF_FRAME":"TEME","INCLINATION":"53.0546","ELEMENT_SET_NO":"999","PERIOD":"95.592","SITE":"AFETR","DECAY_DATE":null,"MEAN_ANOMALY":"306.7262","PERIAPSIS":"545.892","MEAN_MOTION_DOT":"0.00003728","BSTAR":"0.00026905000000","MEAN_MOTION":"15.06398883","EPOCH":"2022-05-20T12:57:22.728096"},{"OBJECT_NAME":"STARLINK-1606","TLE_LINE2":"2 46144  53.0562  54.4093 0001473  67.7724 292.3421 15.06395926 85164","TLE_LINE1":"1 46144U 20057AD  22140.17310307 -.00003626  00000-0 -22469-3 0  9999","COUNTRY_CODE":"US","OBJECT_TYPE":"PAYLOAD","NORAD_CAT_ID":"46144","GP_ID":"204038075","OBJECT_ID":"2020-057AD","SEMIMAJOR_AXIS":"6925.361","REV_AT_EPOCH":"8516","MEAN_ELEMENT_THEORY":"SGP4","APOAPSIS":"548.246","EPHEMERIS_TYPE":"0","CLASSIFICATION_TYPE":"U","LAUNCH_DATE":"2020-08-18","RA_OF_ASC_NODE":"54.4093","RCS_SIZE":"LARGE","MEAN_MOTION_DDOT":"0.0000000000000","TIME_SYSTEM":"UTC","ECCENTRICITY":"0.00014730","MEAN_ANOMALY":"292.3421","PERIAPSIS":"546.206","MEAN_MOTION_DOT":"-0.00003626","BSTAR":"-0.00022469000000","MEAN_MOTION":"15.06395926","EPOCH":"2022-05-20T04:09:16.105248","CENTER_NAME":"EARTH","ARG_OF_PERICENTER":"67.7724","FILE":"3455160","INCLINATION":"53.0562","REF_FRAME":"TEME","ELEMENT_SET_NO":"999","PERIOD":"95.592","SITE":"AFETR","DECAY_DATE":null},{"MEAN_ANOMALY":"307.8035","MEAN_MOTION_DOT":"0.00001118","PERIAPSIS":"545.868","BSTAR":"0.00009400100000","MEAN_MOTION":"15.06391431","EPOCH":"2022-05-20T13:13:18.414912","ARG_OF_PERICENTER":"52.3133","CENTER_NAME":"EARTH","INCLINATION":"53.0567","REF_FRAME":"TEME","FILE":"3455274","ELEMENT_SET_NO":"999","SITE":"AFETR","PERIOD":"95.593","DECAY_DATE":null,"OBJECT_NAME":"STARLINK-1608","TLE_LINE1":"1 46146U 20057AF  22140.55090758  .00001118  00000-0  94001-4 0  9992","TLE_LINE2":"2 46146  53.0567  72.6923 0001981  52.3133 307.8035 15.06391431 97357","GP_ID":"204045021","OBJECT_ID":"2020-057AF","NORAD_CAT_ID":"46146","OBJECT_TYPE":"PAYLOAD","COUNTRY_CODE":"US","SEMIMAJOR_AXIS":"6925.375","REV_AT_EPOCH":"9735","APOAPSIS":"548.612","MEAN_ELEMENT_THEORY":"SGP4","EPHEMERIS_TYPE":"0","RA_OF_ASC_NODE":"72.6923","CLASSIFICATION_TYPE":"U","LAUNCH_DATE":"2020-08-18","RCS_SIZE":"LARGE","TIME_SYSTEM":"UTC","MEAN_MOTION_DDOT":"0.0000000000000","ECCENTRICITY":"0.00019810"},{"INCLINATION":"53.0554","REF_FRAME":"TEME","FILE":"3455160","CENTER_NAME":"EARTH","ARG_OF_PERICENTER":"44.8842","ELEMENT_SET_NO":"999","DECAY_DATE":null,"SITE":"AFETR","PERIOD":"95.593","MEAN_MOTION_DOT":"0.00000204","PERIAPSIS":"545.906","MEAN_ANOMALY":"315.2303","BSTAR":"0.00003262700000","MEAN_MOTION":"15.06389516","EPOCH":"2022-05-20T12:46:46.067232","RA_OF_ASC_NODE":"72.7859","LAUNCH_DATE":"2020-08-18","CLASSIFICATION_TYPE":"U","EPHEMERIS_TYPE":"0","RCS_SIZE":"LARGE","TIME_SYSTEM":"UTC","MEAN_MOTION_DDOT":"0.0000000000000","ECCENTRICITY":"0.00019350","OBJECT_NAME":"STARLINK-1611","TLE_LINE1":"1 46147U 20057AG  22140.53247763  .00000204  00000-0  32627-4 0  9992","TLE_LINE2":"2 46147  53.0554  72.7859 0001935  44.8842 315.2303 15.06389516 97942","SEMIMAJOR_AXIS":"6925.381","REV_AT_EPOCH":"9794","GP_ID":"204039553","NORAD_CAT_ID":"46147","OBJECT_ID":"2020-057AG","OBJECT_TYPE":"PAYLOAD","COUNTRY_CODE":"US","APOAPSIS":"548.586","MEAN_ELEMENT_THEORY":"SGP4"},{"MEAN_MOTION":"15.06348571","EPOCH":"2022-05-20T11:19:13.083744","MEAN_ANOMALY":"304.5307","PERIAPSIS":"545.976","MEAN_MOTION_DOT":"0.00010517","BSTAR":"0.00072486000000","PERIOD":"95.595","SITE":"AFETR","DECAY_DATE":null,"ARG_OF_PERICENTER":"55.5872","CENTER_NAME":"EARTH","FILE":"3455276","INCLINATION":"53.0577","REF_FRAME":"TEME","ELEMENT_SET_NO":"999","COUNTRY_CODE":"US","OBJECT_TYPE":"PAYLOAD","GP_ID":"204045056","OBJECT_ID":"2020-057AH","NORAD_CAT_ID":"46148","REV_AT_EPOCH":"9761","SEMIMAJOR_AXIS":"6925.506","MEAN_ELEMENT_THEORY":"SGP4","APOAPSIS":"548.766","OBJECT_NAME":"STARLINK-1616","TLE_LINE2":"2 46148  53.0577  53.0641 0002014  55.5872 304.5307 15.06348571 97615","TLE_LINE1":"1 46148U 20057AH  22140.47167921  .00010517  00000-0  72486-3 0  9997","TIME_SYSTEM":"UTC","MEAN_MOTION_DDOT":"0.0000000000000","ECCENTRICITY":"0.00020140","EPHEMERIS_TYPE":"0","CLASSIFICATION_TYPE":"U","LAUNCH_DATE":"2020-08-18","RA_OF_ASC_NODE":"53.0641","RCS_SIZE":"LARGE"}];
